              M50 Cartesian                         J2K Cartesian  
    -----------------------------------       --------------------------------
     X    =        6527354.69                 X    =         2060458.40
     Y    =      -21251845.56  feet           Y    =        -6454917.64  meter
     Z    =         922030.59                 Z    =          290872.23
     XDOT =      14804.478465                 XDOT =        4464.539694
     YDOT =       5426.010231  feet/sec       YDOT =        1704.041252  meter/sec
     ZDOT =      19611.092067                 ZDOT =        5999.264891
 
              TDR Cartesian                         TDR Cartesian  
    -----------------------------------       --------------------------------
     X    =       -8658633.88                 X    =        -2639151.61
     Y    =      -20474189.17  feet           Y    =        -6240532.86  meter
     Z    =         965958.85                 Z    =          294424.26
     XDOT =      13241.484432                 XDOT =        4036.004455
     YDOT =      -4641.056915  feet/sec       YDOT =       -1414.594148  meter/sec
     ZDOT =      19705.462476                 ZDOT =        6006.224963
  
  
    The mean element set is posted at the UTC for which position is
    just north of the next ascending node relative to the above
    vector time
 
 
    TWO LINE MEAN ELEMENT SET
  
    ISS
    1 25544U 98067A   16123.56372384  .00016717  00000-0  10270-3 0  9143
    2 25544  51.6398 285.6182 0001724  84.2459 275.8891 15.54476055 37880
  
  
    Satellite: ISS
    Catalog Number: 25544
    Epoch time:      16123.56372384   =   yrday.fracday
    Element set:     914
    Inclination:       51.6398  deg
    RA of node:       285.6182  deg
    Eccentricity:     .0001724     
    Arg of perigee:    84.2459  deg
    Mean anomaly:     275.8891  deg
    Mean motion:   15.54476055  rev/day
    Decay rate:    1.67170E-04  rev/day^2
    Epoch rev:            3788
    Checksum:              347
 
             </PRE>
           </TD>
        </TR>
    </TABLE>
    
    <table align="center" border="0" width="600" cellpadding="0" cellspacing="0">
      <tr>
        <td align="center" valign="top"><hr size="1" width="600" noshade="noshade" />
        <font face="Arial,helvetica" size="-2">Curator: <a href="/cgi-bin/comment.cgi?jsc-hsfwebma@mail.nasa.gov">Kim 
          Dismukes</a> | Responsible NASA Official: <a href="/cgi-bin/comment.cgi?jsc-hsfwebma@mail.nasa.gov">Amiko Kauderer</a> | Updated: 06/08/2009<br />
        <a href="http://www.nasa.gov/about/highlights/HP_Privacy.html">Privacy Policy and Important Notices</a></font></td>
      </tr>
    </table>
    </body>
    </html>
